STARLINK-30810          
1 58178U 23167D   26067.27332530 -.00002157  00000+0 -70786-4 0  9992
2 58178  42.9955 150.9596 0000513 285.2891  74.7904 15.26740310130772
FLOCK 4G-6              
1 62660U 25009BD  26068.71061311  .00012261  00000+0  45910-3 0  9991
2 62660  97.3980 150.7943 0002380 348.2637  11.8546 15.27432125121307
